{
  "type": "FeatureCollection",
  "features": [
    {
      "type": "Feature",
      "properties": {
        "norad_id": 33822,
        "name": "COSMOS 2251 DEB",
        "group": "cosmos-2251-debris",
        "lat": -74.02775111983206,
        "lon": 76.21400918474305,
        "alt_km": 792.7911284550473,
        "timestamp": "2025-12-26T05:31:12.899184+00:00",
        "meta_object_name": "COSMOS 2251 DEB",
        "meta_object_id": "1993-036BP",
        "meta_epoch": "2025-12-25T13:16:47.544384",
        "meta_mean_motion": 14.13138003,
        "meta_eccentricity": 0.0152596,
        "meta_inclination": 74.0681,
        "meta_ra_of_asc_node": 171.0597,
        "meta_arg_of_pericenter": 214.3479,
        "meta_mean_anomaly": 212.0747,
        "meta_ephemeris_type": 0,
        "meta_classification_type": "U",
        "meta_norad_cat_id": 33822,
        "meta_element_set_no": 999,
        "meta_rev_at_epoch": 86235,
        "meta_bstar": 0.0016849,
        "meta_mean_motion_dot": 3.495e-05,
        "meta_mean_motion_ddot": 0,
        "tle_line1": "1 33822U 93036BP  25359.55332806  .00003495  00000+0  16849-2 0  9995",
        "tle_line2": "2 33822  74.0681 171.0597 0152596 214.3479 212.0747 14.13138003862355"
      },
      "geometry": {
        "type": "Point",
        "coordinates": [
          76.21400918474305,
          -74.02775111983206
        ]
      }
    },
    {
      "type": "Feature",
      "properties": {
        "norad_id": 33823,
        "name": "COSMOS 2251 DEB",
        "group": "cosmos-2251-debris",
        "lat": 54.21624407311655,
        "lon": -78.08176539576861,
        "alt_km": 980.1610689941263,
        "timestamp": "2025-12-26T05:31:12.899194+00:00",
        "meta_object_name": "COSMOS 2251 DEB",
        "meta_object_id": "1993-036BQ",
        "meta_epoch": "2025-12-25T19:12:26.186112",
        "meta_mean_motion": 13.98984467,
        "meta_eccentricity": 0.02094899,
        "meta_inclination": 73.81,
        "meta_ra_of_asc_node": 126.4404,
        "meta_arg_of_pericenter": 249.5213,
        "meta_mean_anomaly": 231.3986,
        "meta_ephemeris_type": 0,
        "meta_classification_type": "U",
        "meta_norad_cat_id": 33823,
        "meta_element_set_no": 999,
        "meta_rev_at_epoch": 85792,
        "meta_bstar": 0.00090896206,
        "meta_mean_motion_dot": 1.558e-05,
        "meta_mean_motion_ddot": 0,
        "tle_line1": "1 33823U 93036BQ  25359.80030308  .00001558  00000+0  90896-3 0  9999",
        "tle_line2": "2 33823  73.8100 126.4404 0209489 249.5213 231.3986 13.98984467857921"
      },
      "geometry": {
        "type": "Point",
        "coordinates": [
          -78.08176539576861,
          54.21624407311655
        ]
      }
    },
    {
      "type": "Feature",
      "properties": {
        "norad_id": 33825,
        "name": "COSMOS 2251 DEB",
        "group": "cosmos-2251-debris",
        "lat": -24.691461238264495,
        "lon": -6.032741101514853,
        "alt_km": 607.3910670509877,
        "timestamp": "2025-12-26T05:31:12.899204+00:00",
        "meta_object_name": "COSMOS 2251 DEB",
        "meta_object_id": "1993-036BS",
        "meta_epoch": "2025-12-25T10:21:21.180960",
        "meta_mean_motion": 14.69888847,
        "meta_eccentricity": 0.0085127,
        "meta_inclination": 73.9851,
        "meta_ra_of_asc_node": 3.1078,
        "meta_arg_of_pericenter": 327.2381,
        "meta_mean_anomaly": 103.2695,
        "meta_ephemeris_type": 0,
        "meta_classification_type": "U",
        "meta_norad_cat_id": 33825,
        "meta_element_set_no": 999,
        "meta_rev_at_epoch": 89066,
        "meta_bstar": 0.001092,
        "meta_mean_motion_dot": 6.88e-05,
        "meta_mean_motion_ddot": 0,
        "tle_line1": "1 33825U 93036BS  25359.43149515  .00006880  00000+0  10920-2 0  9993",
        "tle_line2": "2 33825  73.9851   3.1078 0085127 327.2381 103.2695 14.69888847890662"
      },
      "geometry": {
        "type": "Point",
        "coordinates": [
          -6.032741101514853,
          -24.691461238264495
        ]
      }
    },
    {
      "type": "Feature",
      "properties": {
        "norad_id": 33826,
        "name": "COSMOS 2251 DEB",
        "group": "cosmos-2251-debris",
        "lat": 62.27184414601125,
        "lon": 57.44098167379317,
        "alt_km": 654.9204293809289,
        "timestamp": "2025-12-26T05:31:12.899216+00:00",
        "meta_object_name": "COSMOS 2251 DEB",
        "meta_object_id": "1993-036BT",
        "meta_epoch": "2025-12-25T13:15:18.325152",
        "meta_mean_motion": 14.51775833,
        "meta_eccentricity": 0.0082507,
        "meta_inclination": 74.0639,
        "meta_ra_of_asc_node": 25.7871,
        "meta_arg_of_pericenter": 65.796,
        "meta_mean_anomaly": 60.6536,
        "meta_ephemeris_type": 0,
        "meta_classification_type": "U",
        "meta_norad_cat_id": 33826,
        "meta_element_set_no": 999,
        "meta_rev_at_epoch": 87955,
        "meta_bstar": 0.00048037,
        "meta_mean_motion_dot": 1.99e-05,
        "meta_mean_motion_ddot": 0,
        "tle_line1": "1 33826U 93036BT  25359.55229543  .00001990  00000+0  48037-3 0  9995",
        "tle_line2": "2 33826  74.0639  25.7871 0082507  65.7960  60.6536 14.51775833879552"
      },
      "geometry": {
        "type": "Point",
        "coordinates": [
          57.44098167379317,
          62.27184414601125
        ]
      }
    },
    {
      "type": "Feature",
      "properties": {
        "norad_id": 33828,
        "name": "COSMOS 2251 DEB",
        "group": "cosmos-2251-debris",
        "lat": -33.69311320294359,
        "lon": -157.99184781244776,
        "alt_km": 734.0353411607903,
        "timestamp": "2025-12-26T05:31:12.899226+00:00",
        "meta_object_name": "COSMOS 2251 DEB",
        "meta_object_id": "1993-036BV",
        "meta_epoch": "2025-12-25T16:39:34.625664",
        "meta_mean_motion": 14.44368685,
        "meta_eccentricity": 0.00295164,
        "meta_inclination": 74.0449,
        "meta_ra_of_asc_node": 214.0006,
        "meta_arg_of_pericenter": 284.9434,
        "meta_mean_anomaly": 134.4998,
        "meta_ephemeris_type": 0,
        "meta_classification_type": "U",
        "meta_norad_cat_id": 33828,
        "meta_element_set_no": 999,
        "meta_rev_at_epoch": 88500,
        "meta_bstar": 0.00038885129,
        "meta_mean_motion_dot": 1.319e-05,
        "meta_mean_motion_ddot": 0,
        "tle_line1": "1 33828U 93036BV  25359.69415076  .00001319  00000+0  38885-3 0  9995",
        "tle_line2": "2 33828  74.0449 214.0006 0029516 284.9434 134.4998 14.44368685885002"
      },
      "geometry": {
        "type": "Point",
        "coordinates": [
          -157.99184781244776,
          -33.69311320294359
        ]
      }
    },
    {
      "type": "Feature",
      "properties": {
        "norad_id": 33830,
        "name": "COSMOS 2251 DEB",
        "group": "cosmos-2251-debris",
        "lat": -17.068901611369284,
        "lon": -161.12979504572613,
        "alt_km": 615.2222568789821,
        "timestamp": "2025-12-26T05:31:12.899236+00:00",
        "meta_object_name": "COSMOS 2251 DEB",
        "meta_object_id": "1993-036BX",
        "meta_epoch": "2025-12-25T23:48:21.449952",
        "meta_mean_motion": 14.77033889,
        "meta_eccentricity": 0.00428243,
        "meta_inclination": 74.0307,
        "meta_ra_of_asc_node": 204.3812,
        "meta_arg_of_pericenter": 321.7877,
        "meta_mean_anomaly": 194.8716,
        "meta_ephemeris_type": 0,
        "meta_classification_type": "U",
        "meta_norad_cat_id": 33830,
        "meta_element_set_no": 999,
        "meta_rev_at_epoch": 89667,
        "meta_bstar": 0.00071485791,
        "meta_mean_motion_dot": 5.088e-05,
        "meta_mean_motion_ddot": 0,
        "tle_line1": "1 33830U 93036BX  25359.99191493  .00005088  00000+0  71486-3 0  9996",
        "tle_line2": "2 33830  74.0307 204.3812 0042824 321.7877 194.8716 14.77033889896677"
      },
      "geometry": {
        "type": "Point",
        "coordinates": [
          -161.12979504572613,
          -17.068901611369284
        ]
      }
    },
    {
      "type": "Feature",
      "properties": {
        "norad_id": 33832,
        "name": "COSMOS 2251 DEB",
        "group": "cosmos-2251-debris",
        "lat": -34.17948259418439,
        "lon": 173.03598837515742,
        "alt_km": 702.6626270859178,
        "timestamp": "2025-12-26T05:31:12.899247+00:00",
        "meta_object_name": "COSMOS 2251 DEB",
        "meta_object_id": "1993-036BZ",
        "meta_epoch": "2025-12-25T23:49:00.241824",
        "meta_mean_motion": 14.60802512,
        "meta_eccentricity": 0.00239956,
        "meta_inclination": 74.0532,
        "meta_ra_of_asc_node": 184.6855,
        "meta_arg_of_pericenter": 213.2053,
        "meta_mean_anomaly": 301.6425,
        "meta_ephemeris_type": 0,
        "meta_classification_type": "U",
        "meta_norad_cat_id": 33832,
        "meta_element_set_no": 999,
        "meta_rev_at_epoch": 88618,
        "meta_bstar": 0.001406872,
        "meta_mean_motion_dot": 6.876e-05,
        "meta_mean_motion_ddot": 0,
        "tle_line1": "1 33832U 93036BZ  25359.99236391  .00006876  00000+0  14069-2 0  9994",
        "tle_line2": "2 33832  74.0532 184.6855 0023995 213.2053 301.6425 14.60802512886184"
      },
      "geometry": {
        "type": "Point",
        "coordinates": [
          173.03598837515742,
          -34.17948259418439
        ]
      }
    }
  ]
}